1 56067U 23043X 26162.19829632 .00000066 00000+0 12888-3 0 9994 
2 56067 87.9257 245.1639 0002362 99.9402 260.1999 13.21824513157447 
1 56068U 23043Y 26162.18990401 .00000040 00000+0 64199-4 0 9992 
2 56068 87.9263 245.1622 0001743 99.4249 260.7082 13.21826178157452 
1 56069U 23043Z 26162.22248593 -.00000183 00000+0 -51261-3 0 9991 
2 56069 87.9096 229.9685 0002214 83.6138 276.5246 13.16594377158176 
1 56070U 23043AA 26162.24890912 .00000089 00000+0 20358-3 0 9999 
2 56070 87.8998 260.3949 0001989 102.8503 257.2850 13.15548858155657 
1 56071U 23043AB 26162.24652615 .00000102 00000+0 23820-3 0 9999 
2 56071 87.8998 260.4075 0001719 105.0435 255.0885 13.15549825155658 
1 56072U 23043AC 26162.24176250 -.00000202 00000+0 -57054-3 0 9995 
2 56072 87.9002 260.3797 0001734 103.4249 256.7075 13.15548153155649 
1 56073U 23043AD 26162.23702897 -.00000048 00000+0 -16039-3 0 9993 
2 56073 87.8997 260.3987 0001974 95.5341 264.6014 13.15548193155648 
1 56074U 23043AE 26162.23067226 -.00000168 00000+0 -47975-3 0 9990 
2 56074 87.9008 260.3750 0001719 111.9434 248.1879 13.15547677155624 
1 56075U 23043AF 26162.21642946 -.00000064 00000+0 -20443-3 0 9993 
2 56075 87.9003 260.4185 0002249 105.8851 254.2528 13.15548492155611 
1 56076U 23043AG 26162.21166430 -.00000074 00000+0 -23193-3 0 9999 
2 56076 87.9008 260.3814 0001998 92.5093 267.6266 13.15550208155643 
1 56077U 23043AH 26162.20375510 .00000066 00000+0 14159-3 0 9991 
2 56077 87.9007 260.3897 0002008 94.6327 265.5033 13.15549192155627 
1 56078U 23043AJ 26162.19742004 .00000119 00000+0 28141-3 0 9991 
2 56078 87.9001 260.4078 0002265 98.1082 262.0305 13.15548856155648 
1 56079U 23043AK 26162.19266930 .00000129 00000+0 30793-3 0 9998 
2 56079 87.9001 260.4212 0001840 97.1089 263.0251 13.15548650155635 
1 56080U 23043AL 26162.26396979 .00000268 00000+0 67873-3 0 9998 
2 56080 87.8999 260.4007 0002122 95.2794 264.8578 13.15549118156845 
1 56081U 23043AM 26162.18313798 .00000184 00000+0 45414-3 0 9992 
2 56081 87.8998 260.3974 0002267 112.3143 247.8228 13.15550679155640 
1 56710U 23068A 26162.06138367 -.00000013 00000+0 -63931-4 0 9990 
2 56710 87.9192 275.6640 0001802 89.3421 270.7919 13.20770576148696 
1 56711U 23068B 26162.19717035 .00000039 00000+0 69186-4 0 9994 
2 56711 87.9101 229.9617 0002558 102.6555 257.4863 13.16594596150996 
1 56712U 23068C 26162.20507161 -.00000049 00000+0 -16112-3 0 9997 
2 56712 87.9101 229.9659 0002092 88.7606 271.3765 13.16593056150915 
1 56713U 23068D 26162.04957877 .00000020 00000+0 17250-4 0 9995 
2 56713 87.9191 275.6579 0002320 94.7857 265.3541 13.20769613148992 
1 56714U 23068E 26162.22751739 -.00000037 00000+0 -13177-3 0 9998 
2 56714 87.9009 260.3799 0001685 99.7594 260.3727 13.15548479148509 
1 56715U 23068F 26162.16391961 .00000105 00000+0 24095-3 0 9994 
2 56715 87.9100 229.9659 0002606 94.1584 265.9845 13.16594676150933 
1 56716U 23068G 26162.19157112 .00000059 00000+0 11095-3 0 9990 
2 56716 87.9262 245.1633 0002629 101.4533 258.6897 13.21827819150307 
1 56717U 23068H 26162.24792214 .00000088 00000+0 18246-3 0 9992 
2 56717 87.9258 245.1535 0002219 73.6906 286.4472 13.21827069150308 
1 56718U 23068J 26162.25129551 .00000140 00000+0 33768-3 0 9997 
2 56718 87.9007 260.3761 0002487 101.8925 258.2484 13.15548416148679 
1 56719U 23068K 26162.19900587 .00000072 00000+0 15713-3 0 9991 
2 56719 87.9012 260.3859 0002212 104.7025 255.4351 13.15548936148638 
1 56720U 23068L 26162.20692229 .00000009 00000+0 -11251-4 0 9991 
2 56720 87.9009 260.3745 0001134 142.2637 217.8573 13.15548066148461 
1 56721U 23068M 26162.20033929 .00000008 00000+0 -12817-4 0 9996 
2 56721 87.9093 229.9824 0002135 107.5076 252.6289 13.16594939150923 
1 56722U 23068N 26162.20666917 -.00000042 00000+0 -14260-3 0 9998 
2 56722 87.9111 229.9441 0002506 101.4370 258.7043 13.16595180150982 
1 56723U 23068P 26162.24017662 .00000023 00000+0 26099-4 0 9991 
2 56723 87.8998 260.4067 0001494 98.2667 261.8633 13.15546326148586 
1 56724U 23068Q 26162.24970728 .00000122 00000+0 28903-3 0 9998 
2 56724 87.8998 260.3860 0001284 80.8842 279.2433 13.15548371148477 
