OBJECT_NAME,OBJECT_ID,EPOCH,MEAN_MOTION,ECCENTRICITY,INCLINATION,RA_OF_ASC_NODE,ARG_OF_PERICENTER,MEAN_ANOMALY,EPHEMERIS_TYPE,CLASSIFICATION_TYPE,NORAD_CAT_ID,ELEMENT_SET_NO,REV_AT_EPOCH,BSTAR,MEAN_MOTION_DOT,MEAN_MOTION_DDOT
ONEWEB-0578,2023-043X,2026-06-11T04:45:32.802048,13.21824513,.00023625,87.9257,245.1639,99.9402,260.1999,0,U,56067,999,15744,.12887561E-3,.66E-6,0
ONEWEB-0579,2023-043Y,2026-06-11T04:33:27.706464,13.21826178,.00017437,87.9263,245.1622,99.4249,260.7082,0,U,56068,999,15745,.64198769E-4,.4E-6,0
ONEWEB-0581,2023-043Z,2026-06-11T05:20:22.784352,13.16594377,.00022143,87.9096,229.9685,83.6138,276.5246,0,U,56069,999,15817,-.51260908E-3,-.183E-5,0
ONEWEB-0609,2023-043AA,2026-06-11T05:58:25.747968,13.15548858,.00019892,87.8998,260.3949,102.8503,257.2850,0,U,56070,999,15565,.20357982E-3,.89E-6,0
ONEWEB-0613,2023-043AB,2026-06-11T05:54:59.859360,13.15549825,.00017191,87.8998,260.4075,105.0435,255.0885,0,U,56071,999,15565,.23820172E-3,.102E-5,0
ONEWEB-0630,2023-043AC,2026-06-11T05:48:08.280000,13.15548153,.00017341,87.9002,260.3797,103.4249,256.7075,0,U,56072,999,15564,-.57054189E-3,-.202E-5,0
ONEWEB-0632,2023-043AD,2026-06-11T05:41:19.303008,13.15548193,.00019746,87.8997,260.3987,95.5341,264.6014,0,U,56073,999,15564,-.16039166E-3,-.48E-6,0
ONEWEB-0633,2023-043AE,2026-06-11T05:32:10.083264,13.15547677,.00017199,87.9008,260.3750,111.9434,248.1879,0,U,56074,999,15562,-.47975056E-3,-.168E-5,0
ONEWEB-0634,2023-043AF,2026-06-11T05:11:39.505344,13.15548492,.00022493,87.9003,260.4185,105.8851,254.2528,0,U,56075,999,15561,-.20443095E-3,-.64E-6,0
ONEWEB-0635,2023-043AG,2026-06-11T05:04:47.795520,13.15550208,.00019981,87.9008,260.3814,92.5093,267.6266,0,U,56076,999,15564,-.23192676E-3,-.74E-6,0
ONEWEB-0636,2023-043AH,2026-06-11T04:53:24.440640,13.15549192,.00020083,87.9007,260.3897,94.6327,265.5033,0,U,56077,999,15562,.14159254E-3,.66E-6,0
ONEWEB-0637,2023-043AJ,2026-06-11T04:44:17.091456,13.15548856,.00022659,87.9001,260.4078,98.1082,262.0305,0,U,56078,999,15564,.28141203E-3,.119E-5,0
ONEWEB-0647,2023-043AK,2026-06-11T04:37:26.627520,13.15548650,.000184,87.9001,260.4212,97.1089,263.0251,0,U,56079,999,15563,.30793268E-3,.129E-5,0
ONEWEB-0651,2023-043AL,2026-06-11T06:20:06.989856,13.15549118,.00021226,87.8999,260.4007,95.2794,264.8578,0,U,56080,999,15684,.67873446E-3,.268E-5,0
ONEWEB-0718,2023-043AM,2026-06-11T04:23:43.121472,13.15550679,.00022673,87.8998,260.3974,112.3143,247.8228,0,U,56081,999,15564,.45413924E-3,.184E-5,0
ONEWEB-0561,2023-068A,2026-06-11T01:28:23.549088,13.20770576,.00018024,87.9192,275.6640,89.3421,270.7919,0,U,56710,999,14869,-.6393075E-4,-.13E-6,0
ONEWEB-0668,2023-068B,2026-06-11T04:43:55.518240,13.16594596,.00025583,87.9101,229.9617,102.6555,257.4863,0,U,56711,999,15099,.69186144E-4,.39E-6,0
ONEWEB-0676,2023-068C,2026-06-11T04:55:18.187104,13.16593056,.00020928,87.9101,229.9659,88.7606,271.3765,0,U,56712,999,15091,-.16112217E-3,-.49E-6,0
ONEWEB-0677,2023-068D,2026-06-11T01:11:23.605728,13.20769613,.00023201,87.9191,275.6579,94.7857,265.3541,0,U,56713,999,14899,.17249525E-4,.2E-6,0
ONEWEB-0678,2023-068E,2026-06-11T05:27:37.502496,13.15548479,.00016852,87.9009,260.3799,99.7594,260.3727,0,U,56714,999,14850,-.13176807E-3,-.37E-6,0
ONEWEB-0679,2023-068F,2026-06-11T03:56:02.654304,13.16594676,.00026062,87.9100,229.9659,94.1584,265.9845,0,U,56715,999,15093,.24095302E-3,.105E-5,0
ONEWEB-0680,2023-068G,2026-06-11T04:35:51.744768,13.21827819,.0002629,87.9262,245.1633,101.4533,258.6897,0,U,56716,999,15030,.11094617E-3,.59E-6,0
ONEWEB-0681,2023-068H,2026-06-11T05:57:00.472896,13.21827069,.00022194,87.9258,245.1535,73.6906,286.4472,0,U,56717,999,15030,.18245721E-3,.88E-6,0
ONEWEB-0682,2023-068J,2026-06-11T06:01:51.932064,13.15548416,.00024872,87.9007,260.3761,101.8925,258.2484,0,U,56718,999,14867,.33768438E-3,.14E-5,0
ONEWEB-0683,2023-068K,2026-06-11T04:46:34.107168,13.15548936,.00022129,87.9012,260.3859,104.7025,255.4351,0,U,56719,999,14863,.15712833E-3,.72E-6,0
ONEWEB-0684,2023-068L,2026-06-11T04:57:58.085856,13.15548066,.00011346,87.9009,260.3745,142.2637,217.8573,0,U,56720,999,14846,-.11251442E-4,.9E-7,0
ONEWEB-0686,2023-068M,2026-06-11T04:48:29.314656,13.16594939,.00021357,87.9093,229.9824,107.5076,252.6289,0,U,56721,999,15092,-.12816524E-4,.8E-7,0
ONEWEB-0694,2023-068N,2026-06-11T04:57:36.216288,13.16595180,.00025062,87.9111,229.9441,101.4370,258.7043,0,U,56722,999,15098,-.14260462E-3,-.42E-6,0
ONEWEB-0696,2023-068P,2026-06-11T05:45:51.259968,13.15546326,.00014941,87.8998,260.4067,98.2667,261.8633,0,U,56723,999,14858,.26099372E-4,.23E-6,0
ONEWEB-0703,2023-068Q,2026-06-11T05:59:34.708992,13.15548371,.00012843,87.8998,260.3860,80.8842,279.2433,0,U,56724,999,14847,.28902747E-3,.122E-5,0
